{
    "links": {
        "self": "http://www.neowsapp.com/rest/v1/neo/3766632?api_key=iIulBulltgU6a56xZRHN4H3l9WmuAYTsLGpBGhQ2"
    },
    "id": "3766632",
    "neo_reference_id": "3766632",
    "name": "(2017 BH3)",
    "designation": "2017 BH3",
    "nasa_jpl_url": "http://ssd.jpl.nasa.gov/sbdb.cgi?sstr=3766632",
    "absolute_magnitude_h": 24.2,
    "estimated_diameter": {
        "kilometers": {
            "estimated_diameter_min": 0.0384197891,
            "estimated_diameter_max": 0.0859092601
        },
        "meters": {
            "estimated_diameter_min": 38.4197891064,
            "estimated_diameter_max": 85.9092601232
        },
        "miles": {
            "estimated_diameter_min": 0.0238729428,
            "estimated_diameter_max": 0.0533815229
        },
        "feet": {
            "estimated_diameter_min": 126.0491808919,
            "estimated_diameter_max": 281.8545369825
        }
    },
    "is_potentially_hazardous_asteroid": false,
    "close_approach_data": [
        {
            "close_approach_date": "2012-02-20",
            "close_approach_date_full": "2012-Feb-20 00:32",
            "epoch_date_close_approach": 1329697920000,
            "relative_velocity": {
                "kilometers_per_second": "7.1791816616",
                "kilometers_per_hour": "25845.0539817692",
                "miles_per_hour": "16059.1114588388"
            },
            "miss_distance": {
                "astronomical": "0.2316207531",
                "lunar": "90.1004729559",
                "kilometers": "34649971.311555897",
                "miles": "21530493.7907374986"
            },
            "orbiting_body": "Earth"
        },
        {
            "close_approach_date": "2017-02-07",
            "close_approach_date_full": "2017-Feb-07 01:20",
            "epoch_date_close_approach": 1486430400000,
            "relative_velocity": {
                "kilometers_per_second": "6.7018909039",
                "kilometers_per_hour": "24126.8072539738",
                "miles_per_hour": "14991.4597628928"
            },
            "miss_distance": {
                "astronomical": "0.1740506716",
                "lunar": "67.7057112524",
                "kilometers": "26037609.743429492",
                "miles": "16179020.4634193096"
            },
            "orbiting_body": "Earth"
        },
        {
            "close_approach_date": "2022-01-24",
            "close_approach_date_full": "2022-Jan-24 06:55",
            "epoch_date_close_approach": 1643007300000,
            "relative_velocity": {
                "kilometers_per_second": "6.6430241513",
                "kilometers_per_hour": "23914.8869448446",
                "miles_per_hour": "14859.7807241453"
            },
            "miss_distance": {
                "astronomical": "0.2482437253",
                "lunar": "96.5668091417",
                "kilometers": "37136732.545745111",
                "miles": "23075695.5697040918"
            },
            "orbiting_body": "Earth"
        }
    ],
    "orbital_data": {
        "orbit_id": "10",
        "orbit_determination_date": "2017-04-06 08:20:55",
        "first_observation_date": "2017-01-20",
        "last_observation_date": "2017-02-25",
        "data_arc_in_days": 36,
        "observations_used": 35,
        "orbit_uncertainty": "6",
        "minimum_orbit_intersection": ".173352",
        "jupiter_tisserand_invariant": "4.685",
        "epoch_osculation": "2459000.5",
        "eccentricity": ".184616819925954",
        "semi_major_axis": "1.411387552833686",
        "inclination": "12.69457049077541",
        "ascending_node_longitude": "130.179072751598",
        "orbital_period": "612.4460689373165",
        "perihelion_distance": "1.150821671146456",
        "perihelion_argument": "22.61927205970303",
        "aphelion_distance": "1.671953434520915",
        "perihelion_time": "2459033.837245153986",
        "mean_anomaly": "340.4041386431637",
        "mean_motion": ".5878068588547767",
        "equinox": "J2000",
        "orbit_class": {
            "orbit_class_type": "AMO",
            "orbit_class_description": "Near-Earth asteroid orbits similar to that of 1221 Amor",
            "orbit_class_range": "1.017 AU < q (perihelion) < 1.3 AU"
        }
    },
    "is_sentry_object": false
}